NORAD_CAT_ID,OBJECT_NAME,OBJECT_TYPE,EPOCH,MEAN_MOTION,ECCENTRICITY,INCLINATION,RA_OF_ASC_NODE,ARG_OF_PERICENTER,MEAN_ANOMALY,BSTAR,MEAN_MOTION_DOT,MEAN_MOTION_DDOT,TLE_LINE0,TLE_LINE1,TLE_LINE2,SEMIMAJOR_AXIS,PERIOD,APOGEE,PERIGEE,DECAYED
55308.0,STARLINK-5292,PAYLOAD,2023-09-30 17:31:08,14.98327651,0.000296,70.0002,90.9382,272.8103,87.2717,-4.4495e-05,-6.24e-06,0.0,0 STARLINK-5292,1 55308U 23010AR  23273.72995718 -.00000624  00000-0 -44495-4 0  9996,2 55308  70.0002  90.9382 0002960 272.8103  87.2717 14.98327651 39991,6950.2,96.107,574.122,570.008,0.0
55308.0,STARLINK-5292,PAYLOAD,2023-10-01 12:44:44,14.98330736,0.0002962,69.9996,88.9179,266.633,93.449,-8.3138e-06,-1.92e-06,0.0,0 STARLINK-5292,1 55308U 23010AR  23274.53107375 -.00000192  00000-0 -83138-5 0  9998,2 55308  69.9996  88.9179 0002962 266.6330  93.4490 14.98330736 41309,6950.191,96.107,574.114,569.997,0.0
55308.0,STARLINK-5292,PAYLOAD,2023-10-01 19:09:16,14.98333979,0.0002541,69.9999,88.2444,253.25,106.838,3.7046e-05,3.49e-06,0.0,0 STARLINK-5292,1 55308U 23010AR  23274.79810978  .00000349  00000-0  37046-4 0  9994,2 55308  69.9999  88.2444 0002541 253.2500 106.8380 14.98333979 40155,6950.181,96.107,573.812,570.28,0.0
55308.0,STARLINK-5292,PAYLOAD,2023-10-01 20:45:24,14.98334517,0.0002949,69.9995,88.0759,269.9756,90.1065,3.0903e-05,2.76e-06,0.0,0 STARLINK-5292,1 55308U 23010AR  23274.86486985  .00000276  00000-0  30903-4 0  9993,2 55308  69.9995  88.0759 0002949 269.9756  90.1065 14.98334517 41354,6950.179,96.107,574.094,569.994,0.0
55308.0,STARLINK-5292,PAYLOAD,2023-10-02 12:46:42,14.98362076,0.0002898,69.9997,86.3927,273.6102,86.4726,0.0003935,4.609e-05,0.0,0 STARLINK-5292,1 55308U 23010AR  23275.53243858  .00004609  00000-0  39350-3 0  9996,2 55308  69.9997  86.3927 0002898 273.6102  86.4726 14.98362076 40266,6950.094,96.105,573.973,569.945,0.0
55308.0,STARLINK-5292,PAYLOAD,2023-10-02 20:47:03,14.98578827,0.0003231,69.9997,85.5503,260.1969,99.8825,0.0026531,0.00031913,0.0,0 STARLINK-5292,1 55308U 23010AR  23275.86601621  .00031913  00000-0  26531-2 0  9992,2 55308  69.9997  85.5503 0003231 260.1969  99.8825 14.98578827 40318,6949.424,96.091,573.534,569.043,0.0
55308.0,STARLINK-5292,PAYLOAD,2023-10-03 04:47:24,14.9876941,0.0003177,69.9998,84.7078,267.9251,92.1544,0.0044231,0.00053697,0.0,0 STARLINK-5292,1 55308U 23010AR  23276.19958742  .00053697  00000-0  44231-2 0  9998,2 55308  69.9998  84.7078 0003177 267.9251  92.1544 14.98769410 40364,6948.834,96.079,572.907,568.492,0.0
55308.0,STARLINK-5292,PAYLOAD,2023-10-03 14:24:01,14.98806662,0.0003084,69.9994,83.6976,270.9153,89.1653,0.0043062,0.00052316,0.0,0 STARLINK-5292,1 55308U 23010AR  23276.60001659  .00052316  00000-0  43062-2 0  9998,2 55308  69.9994  83.6976 0003084 270.9153  89.1653 14.98806662 41614,6948.719,96.076,572.727,568.441,0.0
55308.0,STARLINK-5292,PAYLOAD,2023-10-03 20:48:25,14.98830251,0.000309,69.9988,83.0237,271.4452,88.6353,0.0041974,0.00051013,0.0,0 STARLINK-5292,1 55308U 23010AR  23276.86696088  .00051013  00000-0  41974-2 0  9995,2 55308  69.9988  83.0237 0003090 271.4452  88.6353 14.98830251 40460,6948.646,96.075,572.658,568.364,0.0
55308.0,STARLINK-5292,PAYLOAD,2023-10-04 11:13:17,14.98896084,0.0002935,69.9994,81.5093,274.5992,85.4832,0.0036399,0.00044258,0.0,0 STARLINK-5292,1 55308U 23010AR  23277.46756458  .00044258  00000-0  36399-2 0  9998,2 55308  69.9994  81.5093 0002935 274.5992  85.4832 14.98896084 40553,6948.443,96.071,572.347,568.269,0.0
55308.0,STARLINK-5292,PAYLOAD,2023-10-04 14:25:28,14.98907863,0.000283,69.9995,81.1725,273.0156,87.068,0.0035815,0.00043555,0.0,0 STARLINK-5292,1 55308U 23010AR  23277.60102572  .00043555  00000-0  35815-2 0  9997,2 55308  69.9995  81.1725 0002830 273.0156  87.0680 14.98907863 41763,6948.406,96.07,572.238,568.305,0.0
55308.0,STARLINK-5292,PAYLOAD,2023-10-04 17:37:39,14.98959439,0.0003072,69.9993,80.8354,269.6762,90.4045,0.0028792,0.00035,0.0,0 STARLINK-5292,1 55308U 23010AR  23277.73447969  .00035000  00000-0  28792-2 0  9995,2 55308  69.9993  80.8354 0003072 269.6762  90.4045 14.98959439 40597,6948.247,96.067,572.247,567.978,0.0
55308.0,STARLINK-5292,PAYLOAD,2023-10-04 20:49:49,14.98970851,0.0002913,69.9995,80.4988,262.8148,97.268,0.0027941,0.00033968,0.0,0 STARLINK-5292,1 55308U 23010AR  23277.86793502  .00033968  00000-0  27941-2 0  9992,2 55308  69.9995  80.4988 0002913 262.8148  97.2680 14.98970851 41800,6948.212,96.066,572.101,568.053,0.0
55308.0,STARLINK-5292,PAYLOAD,2023-10-05 11:14:34,14.99125471,0.0002967,69.9996,78.9826,276.8713,83.2109,0.00019246,2.251e-05,0.0,0 STARLINK-5292,1 55308U 23010AR  23278.46844933  .00002251  00000-0  19246-3 0  9995,2 55308  69.9996  78.9826 0002967 276.8713  83.2109 14.99125471 40706,6947.734,96.056,571.66,567.538,0.0
55308.0,STARLINK-5292,PAYLOAD,2023-10-05 12:50:38,14.99125948,0.0003112,69.9996,78.8141,270.7613,89.319,0.00018358,2.143e-05,0.0,0 STARLINK-5292,1 55308U 23010AR  23278.53517279  .00002143  00000-0  18358-3 0  9996,2 55308  69.9996  78.8141 0003112 270.7613  89.3190 14.99125948 41909,6947.733,96.056,571.76,567.435,0.0
55308.0,STARLINK-5292,PAYLOAD,2023-10-05 22:00:00,14.99127022,0.0003215,70.0019,77.851,276.4096,342.0627,0.0014397,0.00017487,0.0,0 STARLINK-5292,1 55308U 23010AR  23278.91667824  .00017487  00000-0  14397-2 0  9995,2 55308  70.0019  77.8510 0003215 276.4096 342.0627 14.99127022 40772,6947.729,96.056,571.828,567.361,0.0
55308.0,STARLINK-5292,PAYLOAD,2023-10-06 11:15:48,14.99138697,0.0002954,70.0003,76.4555,271.3154,88.7667,-4.4813e-05,-6.4e-06,0.0,0 STARLINK-5292,1 55308U 23010AR  23279.46930665 -.00000640  00000-0 -44813-4 0  9995,2 55308  70.0003  76.4555 0002954 271.3154  88.7667 14.99138697 40854,6947.693,96.055,571.611,567.506,0.0
55308.0,STARLINK-5292,PAYLOAD,2023-10-06 12:51:53,14.99138381,0.000296,70.0003,76.2871,271.3128,88.7692,-4.7626e-05,-6.74e-06,0.0,0 STARLINK-5292,1 55308U 23010AR  23279.53603088 -.00000674  00000-0 -47626-4 0  9991,2 55308  70.0003  76.2871 0002960 271.3128  88.7692 14.99138381 42053,6947.694,96.055,571.616,567.503,0.0
55308.0,STARLINK-5292,PAYLOAD,2023-10-06 20:52:17,14.99142716,0.000294,70.0004,75.4449,271.3868,88.6955,3.9641e-06,-4.5e-07,0.0,0 STARLINK-5292,1 55308U 23010AR  23279.86964638 -.00000045  00000-0  39641-5 0  9998,2 55308  70.0004  75.4449 0002940 271.3868  88.6955 14.99142716 42109,6947.681,96.055,571.588,567.503,0.0
55308.0,STARLINK-5292,PAYLOAD,2023-10-07 12:53:07,14.99138178,0.0002878,70.0006,73.7606,272.9526,87.1304,-3.2345e-06,-1.33e-06,0.0,0 STARLINK-5292,1 55308U 23010AR  23280.53688906 -.00000133  00000-0 -32345-5 0  9998,2 55308  70.0006  73.7606 0002878 272.9526  87.1304 14.99138178 42205,6947.695,96.055,571.559,567.56,0.0
55308.0,STARLINK-5292,PAYLOAD,2023-10-07 20:53:31,14.99139545,0.0002757,70.001,72.9191,265.986,94.0985,3.9547e-05,3.88e-06,0.0,0 STARLINK-5292,1 55308U 23010AR  23280.87050667  .00000388  00000-0  39547-4 0  9992,2 55308  70.0010  72.9191 0002757 265.9860  94.0985 14.99139545 42255,6947.691,96.055,571.471,567.64,0.0
55308.0,STARLINK-5292,PAYLOAD,2023-10-08 12:54:21,14.99137985,0.0002818,70.001,71.2349,266.5408,93.5429,-6.3622e-06,-1.71e-06,0.0,0 STARLINK-5292,1 55308U 23010AR  23281.53774867 -.00000171  00000-0 -63622-5 0  9995,2 55308  70.0010  71.2349 0002818 266.5408  93.5429 14.99137985 42359,6947.695,96.055,571.518,567.603,0.0
55308.0,STARLINK-5292,PAYLOAD,2023-10-08 20:54:46,14.99139689,0.0002995,70.0008,70.3922,271.8652,88.2164,5.2319e-05,5.44e-06,0.0,0 STARLINK-5292,1 55308U 23010AR  23281.87136582  .00000544  00000-0  52319-4 0  9990,2 55308  70.0008  70.3922 0002995 271.8652  88.2164 14.99139689 42405,6947.69,96.055,571.636,567.474,0.0
55308.0,STARLINK-5292,PAYLOAD,2023-10-09 12:55:35,14.99138004,0.0003021,70.0005,68.7078,270.5128,89.5685,-3.6534e-05,-5.39e-06,0.0,0 STARLINK-5292,1 55308U 23010AR  23282.53860911 -.00000539  00000-0 -36534-4 0  9991,2 55308  70.0005  68.7078 0003021 270.5128  89.5685 14.99138004 42503,6947.695,96.055,571.659,567.461,0.0
55308.0,STARLINK-5292,PAYLOAD,2023-10-09 19:19:56,14.99126386,0.0002804,70.0012,68.0342,269.209,90.8748,-0.00014193,-1.822e-05,0.0,0 STARLINK-5292,1 55308U 23010AR  23282.80551532 -.00001822  00000-0 -14193-3 0  9999,2 55308  70.0012  68.0342 0002804 269.2090  90.8748 14.99126386 42548,6947.731,96.056,571.544,567.648,0.0
55308.0,STARLINK-5292,PAYLOAD,2023-10-10 09:44:41,14.99124874,0.0002929,70.0009,66.518,269.7639,90.3185,-9.1782e-05,-1.211e-05,0.0,0 STARLINK-5292,1 55308U 23010AR  23283.40603449 -.00001211  00000-0 -91782-4 0  9993,2 55308  70.0009  66.5180 0002929 269.7639  90.3185 14.99124874 42639,6947.736,96.056,571.636,567.566,0.0
55308.0,STARLINK-5292,PAYLOAD,2023-10-10 19:21:59,14.98638722,0.0002703,70.0017,65.5097,255.8254,104.2605,-0.004657,-0.00055662,0.0,0 STARLINK-5292,1 55308U 23010AR  23283.80693417 -.00055662  00000-0 -46570-2 0  9993,2 55308  70.0017  65.5097 0002703 255.8254 104.2605 14.98638722 41501,6949.238,96.087,572.982,569.225,0.0
55308.0,STARLINK-5292,PAYLOAD,2023-10-10 20:58:09,14.98590806,0.0002898,70.0017,65.3412,260.2143,99.8689,-0.0051103,-0.00060951,0.0,0 STARLINK-5292,1 55308U 23010AR  23283.87371646 -.00060951  00000-0 -51103-2 0  9992,2 55308  70.0017  65.3412 0002898 260.2143  99.8689 14.98590806 42706,6949.386,96.09,573.265,569.238,0.0
55308.0,STARLINK-5292,PAYLOAD,2023-10-10 22:34:09,14.9867151,0.0003184,70.0009,65.1719,269.6341,90.4453,-0.0043603,-0.00052194,0.0,0 STARLINK-5292,1 55308U 23010AR  23283.94039331 -.00052194  00000-0 -43603-2 0  9998,2 55308  70.0009  65.1719 0003184 269.6341  90.4453 14.98671510 41524,6949.137,96.085,573.215,568.789,0.0
55308.0,STARLINK-5292,PAYLOAD,2023-10-11 12:59:52,14.98050512,0.0002892,70.0007,63.6586,247.5142,112.571,-0.010703,-0.0012465,0.0,0 STARLINK-5292,1 55308U 23010AR  23284.54157973 -.00124650  00000-0 -10703-1 0  9999,2 55308  70.0007  63.6586 0002892 247.5142 112.5710 14.98050512 41611,6951.057,96.125,574.933,570.912,0.0
